CCSDS_OMM_VERS = 2.0
CREATION_DATE  = 
ORIGINATOR     = 

OBJECT_NAME    = PROGRESS-MS 32
OBJECT_ID      = 2025-204A
CENTER_NAME    = EARTH
REF_FRAME      = TEME
TIME_SYSTEM    = UTC
MEAN_ELEMENT_THEORY = SGP/SGP4

EPOCH          = 2025-11-02T03:58:07.869504
MEAN_MOTION    = 15.49695226
ECCENTRICITY   = .00049491
INCLINATION    = 51.6344
RA_OF_ASC_NODE = 343.3491
ARG_OF_PERICENTER = 8.0304
MEAN_ANOMALY   = 352.0763

EPHEMERIS_TYPE = 0
CLASSIFICATION_TYPE = U
NORAD_CAT_ID   = 65586
ELEMENT_SET_NO = 999
REV_AT_EPOCH   = 27
BSTAR          = .1982056E-3
MEAN_MOTION_DOT = .10754E-3
MEAN_MOTION_DDOT = 0

CCSDS_OMM_VERS = 2.0
CREATION_DATE  = 
ORIGINATOR     = 

OBJECT_NAME    = CYGNUS NG-23
OBJECT_ID      = 2025-208A
CENTER_NAME    = EARTH
REF_FRAME      = TEME
TIME_SYSTEM    = UTC
MEAN_ELEMENT_THEORY = SGP/SGP4

EPOCH          = 2025-11-02T03:58:07.869504
MEAN_MOTION    = 15.49695226
ECCENTRICITY   = .00049491
INCLINATION    = 51.6344
RA_OF_ASC_NODE = 343.3491
ARG_OF_PERICENTER = 8.0304
MEAN_ANOMALY   = 352.0763

EPHEMERIS_TYPE = 0
CLASSIFICATION_TYPE = U
NORAD_CAT_ID   = 65616
ELEMENT_SET_NO = 999
REV_AT_EPOCH   = 22
BSTAR          = .1982056E-3
MEAN_MOTION_DOT = .10754E-3
MEAN_MOTION_DDOT = 0

CCSDS_OMM_VERS = 2.0
CREATION_DATE  = 
ORIGINATOR     = 

OBJECT_NAME    = DRAGONFLY
OBJECT_ID      = 1998-067XH
CENTER_NAME    = EARTH
REF_FRAME      = TEME
TIME_SYSTEM    = UTC
MEAN_ELEMENT_THEORY = SGP/SGP4

EPOCH          = 2025-11-02T09:23:36.786336
MEAN_MOTION    = 15.59817489
ECCENTRICITY   = .000353
INCLINATION    = 51.6314
RA_OF_ASC_NODE = 340.3627
ARG_OF_PERICENTER = 67.4821
MEAN_ANOMALY   = 292.6545

EPHEMERIS_TYPE = 0
CLASSIFICATION_TYPE = U
NORAD_CAT_ID   = 65729
ELEMENT_SET_NO = 999
REV_AT_EPOCH   = 684
BSTAR          = .111E-2
MEAN_MOTION_DOT = .914E-3
MEAN_MOTION_DDOT = 0

CCSDS_OMM_VERS = 2.0
CREATION_DATE  = 
ORIGINATOR     = 

OBJECT_NAME    = 1998-067XJ
OBJECT_ID      = 1998-067XJ
CENTER_NAME    = EARTH
REF_FRAME      = TEME
TIME_SYSTEM    = UTC
MEAN_ELEMENT_THEORY = SGP/SGP4

EPOCH          = 2025-11-02T11:37:43.539744
MEAN_MOTION    = 15.68412478
ECCENTRICITY   = .0011
INCLINATION    = 51.6288
RA_OF_ASC_NODE = 338.7278
ARG_OF_PERICENTER = 47.1100
MEAN_ANOMALY   = 313.0819

EPHEMERIS_TYPE = 0
CLASSIFICATION_TYPE = U
NORAD_CAT_ID   = 65730
ELEMENT_SET_NO = 999
REV_AT_EPOCH   = 687
BSTAR          = .20561E-2
MEAN_MOTION_DOT = .243642E-2
MEAN_MOTION_DDOT = 0

CCSDS_OMM_VERS = 2.0
CREATION_DATE  = 
ORIGINATOR     = 

OBJECT_NAME    = 1998-067XK
OBJECT_ID      = 1998-067XK
CENTER_NAME    = EARTH
REF_FRAME      = TEME
TIME_SYSTEM    = UTC
MEAN_ELEMENT_THEORY = SGP/SGP4

EPOCH          = 2025-11-02T11:32:45.661056
MEAN_MOTION    = 15.57788935
ECCENTRICITY   = .0004986
INCLINATION    = 51.6326
RA_OF_ASC_NODE = 340.2124
ARG_OF_PERICENTER = 45.7464
MEAN_ANOMALY   = 314.3936

EPHEMERIS_TYPE = 0
CLASSIFICATION_TYPE = U
NORAD_CAT_ID   = 65731
ELEMENT_SET_NO = 999
REV_AT_EPOCH   = 685
BSTAR          = .82931E-3
MEAN_MOTION_DOT = .62884E-3
MEAN_MOTION_DDOT = 0

CCSDS_OMM_VERS = 2.0
CREATION_DATE  = 
ORIGINATOR     = 

OBJECT_NAME    = RSP-03
OBJECT_ID      = 1998-067XL
CENTER_NAME    = EARTH
REF_FRAME      = TEME
TIME_SYSTEM    = UTC
MEAN_ELEMENT_THEORY = SGP/SGP4

EPOCH          = 2025-11-01T19:51:30.250944
MEAN_MOTION    = 15.58678481
ECCENTRICITY   = .00057627
INCLINATION    = 51.6320
RA_OF_ASC_NODE = 343.3470
ARG_OF_PERICENTER = 44.1597
MEAN_ANOMALY   = 315.9855

EPHEMERIS_TYPE = 0
CLASSIFICATION_TYPE = U
NORAD_CAT_ID   = 65732
ELEMENT_SET_NO = 999
REV_AT_EPOCH   = 676
BSTAR          = .99142552E-3
MEAN_MOTION_DOT = .78013E-3
MEAN_MOTION_DDOT = 0

CCSDS_OMM_VERS = 2.0
CREATION_DATE  = 
ORIGINATOR     = 

OBJECT_NAME    = GHS-01
OBJECT_ID      = 1998-067XM
CENTER_NAME    = EARTH
REF_FRAME      = TEME
TIME_SYSTEM    = UTC
MEAN_ELEMENT_THEORY = SGP/SGP4

EPOCH          = 2025-11-02T09:11:10.133952
MEAN_MOTION    = 15.60529617
ECCENTRICITY   = .0004009
INCLINATION    = 51.6324
RA_OF_ASC_NODE = 340.3060
ARG_OF_PERICENTER = 64.4397
MEAN_ANOMALY   = 295.7010

EPHEMERIS_TYPE = 0
CLASSIFICATION_TYPE = U
NORAD_CAT_ID   = 65733
ELEMENT_SET_NO = 999
REV_AT_EPOCH   = 685
BSTAR          = .12194E-2
MEAN_MOTION_DOT = .103401E-2
MEAN_MOTION_DDOT = 0

CCSDS_OMM_VERS = 2.0
CREATION_DATE  = 
ORIGINATOR     = 

OBJECT_NAME    = YOTSUBA-KULOVER
OBJECT_ID      = 1998-067XN
CENTER_NAME    = EARTH
REF_FRAME      = TEME
TIME_SYSTEM    = UTC
MEAN_ELEMENT_THEORY = SGP/SGP4

EPOCH          = 2025-11-02T04:40:11.378496
MEAN_MOTION    = 15.53311816
ECCENTRICITY   = .00026949
INCLINATION    = 51.6327
RA_OF_ASC_NODE = 342.7961
ARG_OF_PERICENTER = 352.6363
MEAN_ANOMALY   = 7.4587

EPHEMERIS_TYPE = 0
CLASSIFICATION_TYPE = U
NORAD_CAT_ID   = 65941
ELEMENT_SET_NO = 999
REV_AT_EPOCH   = 354
BSTAR          = .79361841E-3
MEAN_MOTION_DOT = .50853E-3
MEAN_MOTION_DDOT = 0

CCSDS_OMM_VERS = 2.0
CREATION_DATE  = 
ORIGINATOR     = 

OBJECT_NAME    = BOTAN
OBJECT_ID      = 1998-067XP
CENTER_NAME    = EARTH
REF_FRAME      = TEME
TIME_SYSTEM    = UTC
MEAN_ELEMENT_THEORY = SGP/SGP4

EPOCH          = 2025-11-01T13:05:08.144160
MEAN_MOTION    = 15.54095782
ECCENTRICITY   = .00046258
INCLINATION    = 51.6331
RA_OF_ASC_NODE = 345.9591
ARG_OF_PERICENTER = 5.6465
MEAN_ANOMALY   = 354.4577

EPHEMERIS_TYPE = 0
CLASSIFICATION_TYPE = U
NORAD_CAT_ID   = 65942
ELEMENT_SET_NO = 999
REV_AT_EPOCH   = 344
BSTAR          = .10070176E-2
MEAN_MOTION_DOT = .66684E-3
MEAN_MOTION_DDOT = 0

CCSDS_OMM_VERS = 2.0
CREATION_DATE  = 
ORIGINATOR     = 

OBJECT_NAME    = E-KAGAKU-1
OBJECT_ID      = 1998-067XQ
CENTER_NAME    = EARTH
REF_FRAME      = TEME
TIME_SYSTEM    = UTC
MEAN_ELEMENT_THEORY = SGP/SGP4

EPOCH          = 2025-11-01T11:40:27.801696
MEAN_MOTION    = 15.53246328
ECCENTRICITY   = .00044075
INCLINATION    = 51.6344
RA_OF_ASC_NODE = 346.3156
ARG_OF_PERICENTER = 355.0444
MEAN_ANOMALY   = 5.0502

EPHEMERIS_TYPE = 0
CLASSIFICATION_TYPE = U
NORAD_CAT_ID   = 65943
ELEMENT_SET_NO = 999
REV_AT_EPOCH   = 343
BSTAR          = .76576249E-3
MEAN_MOTION_DOT = .48933E-3
MEAN_MOTION_DDOT = 0

CCSDS_OMM_VERS = 2.0
CREATION_DATE  = 
ORIGINATOR     = 

OBJECT_NAME    = HRC MONOBLOCK CAMERA
OBJECT_ID      = 1998-067XR
CENTER_NAME    = EARTH
REF_FRAME      = TEME
TIME_SYSTEM    = UTC
MEAN_ELEMENT_THEORY = SGP/SGP4

EPOCH          = 2025-11-02T11:32:37.066848
MEAN_MOTION    = 15.50684659
ECCENTRICITY   = .0004508
INCLINATION    = 51.6324
RA_OF_ASC_NODE = 341.7067
ARG_OF_PERICENTER = 18.7582
MEAN_ANOMALY   = 341.3573

EPHEMERIS_TYPE = 0
CLASSIFICATION_TYPE = U
NORAD_CAT_ID   = 66052
ELEMENT_SET_NO = 999
REV_AT_EPOCH   = 258
BSTAR          = .50051E-3
MEAN_MOTION_DOT = .28921E-3
MEAN_MOTION_DDOT = 0

CCSDS_OMM_VERS = 2.0
CREATION_DATE  = 
ORIGINATOR     = 

OBJECT_NAME    = HTV-X1
OBJECT_ID      = 2025-241A
CENTER_NAME    = EARTH
REF_FRAME      = TEME
TIME_SYSTEM    = UTC
MEAN_ELEMENT_THEORY = SGP/SGP4

EPOCH          = 2025-11-02T03:58:07.869504
MEAN_MOTION    = 15.49695226
ECCENTRICITY   = .00049491
INCLINATION    = 51.6344
RA_OF_ASC_NODE = 343.3491
ARG_OF_PERICENTER = 8.0304
MEAN_ANOMALY   = 352.0763

EPHEMERIS_TYPE = 0
CLASSIFICATION_TYPE = U
NORAD_CAT_ID   = 66174
ELEMENT_SET_NO = 999
REV_AT_EPOCH   = 108
BSTAR          = .1982056E-3
MEAN_MOTION_DOT = .10754E-3
MEAN_MOTION_DDOT = 0

